OBJECT_NAME,OBJECT_ID,EPOCH,MEAN_MOTION,ECCENTRICITY,INCLINATION,RA_OF_ASC_NODE,ARG_OF_PERICENTER,MEAN_ANOMALY,EPHEMERIS_TYPE,CLASSIFICATION_TYPE,NORAD_CAT_ID,ELEMENT_SET_NO,REV_AT_EPOCH,BSTAR,MEAN_MOTION_DOT,MEAN_MOTION_DDOT
DMSP 5D-3 F16 (USA 172),2003-048A,2026-07-23T14:30:17.027136,14.14485024,.00078815,98.9887,228.6723,50.4841,63.9818,0,U,28054,999,17463,.18312509E-4,-.1E-6,0
METEOSAT-9 (MSG-2),2005-049B,2026-07-22T23:00:03.930048,1.00276551,.00024917,9.4401,53.8093,0.9883,276.6377,0,U,28912,999,735,0,.12E-5,0
DMSP 5D-3 F17 (USA 191),2006-050A,2026-07-23T14:03:46.209600,14.14996790,.00092727,98.7392,210.4132,317.5244,42.5211,0,U,29522,999,1757,.36585972E-4,.27E-6,0
FENGYUN 3A,2008-026A,2026-07-23T13:23:05.492544,14.19577818,.00093132,98.6886,144.7119,29.8116,330.3589,0,U,32958,999,94056,.43044481E-4,.47E-6,0
EWS-G3 (GOES 14),2009-033A,2026-07-23T13:00:38.746368,1.00094475,.00022583,1.7807,82.5909,39.6383,134.0042,0,U,35491,999,695,0,-.355E-5,0
DMSP 5D-3 F18 (USA 210),2009-057A,2026-07-23T13:25:47.597952,14.14915612,.00116839,98.9064,185.2545,142.6518,217.5470,0,U,35951,999,86473,.13150128E-3,.21E-5,0
EWS-G2 (GOES 15),2010-008A,2026-07-23T09:51:48.337632,1.00272364,.00056588,1.3750,82.3693,52.8208,17.1477,0,U,36411,999,6000,0,.26E-6,0
COMS 1,2010-032A,2026-07-23T12:38:48.600960,0.99165960,.00115388,4.8958,74.9166,15.4491,329.5146,0,U,36744,999,5144,0,-.133E-5,0
FENGYUN 3B,2010-059A,2026-07-23T14:24:31.490208,14.14847905,.00232479,98.9604,250.7654,84.0013,68.8333,0,U,37214,999,81257,.36065799E-4,.25E-6,0
SUOMI NPP,2011-061A,2026-07-23T13:41:13.657344,14.19523877,.00011872,98.7956,145.1993,179.7398,180.3779,0,U,37849,999,76360,.40750773E-4,.42E-6,0
METEOSAT-10 (MSG-3),2012-035B,2026-07-23T07:51:05.624352,1.00273350,.00015017,4.7548,60.8386,20.6416,337.4080,0,U,38552,999,5121,0,-.6E-7,0
METOP-B,2012-049A,2026-07-23T13:57:35.985600,14.21448081,.000144,98.6484,255.3509,213.3063,146.8024,0,U,38771,999,71843,.51790929E-4,.7E-6,0
INSAT-3D,2013-038B,2026-07-23T13:00:38.746368,1.00272591,.00011614,2.0172,82.0810,44.1234,139.7387,0,U,39216,999,4744,0,-.336E-5,0
FENGYUN 3C,2013-052A,2026-07-23T13:57:57.819744,14.15762211,.00134444,98.5007,176.7908,279.8450,80.1207,0,U,39260,999,66371,.53476052E-4,.64E-6,0
METEOR-M 2,2014-037A,2026-07-23T14:34:48.578016,14.21471385,.00046986,98.5143,179.0607,298.3637,61.7067,0,U,40069,999,62449,.80592682E-4,.134E-5,0
HIMAWARI-8,2014-060A,2026-07-23T12:52:38.807328,1.00270581,.00013959,0.0383,271.6145,245.2728,118.1855,0,U,40267,999,4312,0,-.271E-5,0
FENGYUN 2G,2014-090A,2026-07-23T13:27:31.244256,1.00278257,.00036609,5.7286,72.3725,170.8315,359.5189,0,U,40367,999,4236,0,-.303E-5,0
METEOSAT-11 (MSG-4),2015-034A,2026-07-23T07:53:35.384928,1.00274399,.00019652,3.2887,70.8737,355.6720,2.2037,0,U,40732,999,757,0,.64E-6,0
ELEKTRO-L 2,2015-074A,2026-07-23T09:29:20.490720,1.00272680,.00006087,6.7828,70.0749,232.2610,126.6465,0,U,41105,999,3886,0,-.118E-5,0
SENTINEL-3A,2016-011A,2026-07-23T14:44:04.784928,14.26736152,.00012903,98.6231,271.4708,86.8631,273.2698,0,U,41335,999,54325,.74789523E-4,.137E-5,0
INSAT-3DR,2016-054A,2026-07-23T13:20:09.450816,1.00271813,.00102399,0.0901,88.9489,180.2150,306.1426,0,U,41752,999,3618,0,-.72E-6,0
HIMAWARI-9,2016-064A,2026-07-23T06:48:39.388608,1.00270213,.00025294,0.0156,51.3157,127.9715,4.6463,0,U,41836,999,3557,0,0,0
GOES 16,2016-071A,2026-07-23T12:29:12.021792,1.00271931,.00007539,0.4242,85.4212,70.8158,227.6119,0,U,41866,999,3546,0,-.86E-6,0
FENGYUN 4A,2016-077A,2026-07-23T10:27:51.587136,1.00264744,.00080208,2.4122,79.8675,158.7325,343.1279,0,U,41882,999,3529,0,-.355E-5,0
CYGFM05,2016-078A,2026-07-23T14:06:15.185664,15.58183400,.00053482,34.9577,19.2667,130.7149,229.4041,0,U,41884,999,53443,.32706944E-3,.25559E-3,0
CYGFM04,2016-078B,2026-07-23T13:36:53.087904,15.63517390,.00044985,34.9333,345.1759,180.1938,179.8787,0,U,41885,999,53469,.38441825E-3,.36982E-3,0
CYGFM02,2016-078C,2026-07-23T13:23:16.021248,15.66885196,.00052057,34.9411,338.6441,180.7880,179.2840,0,U,41886,999,53487,.39512237E-3,.43551E-3,0
CYGFM01,2016-078D,2026-07-23T14:58:27.388704,15.58917545,.00051376,34.9406,19.7776,123.8181,236.3034,0,U,41887,999,53439,.33293473E-3,.26758E-3,0
CYGFM08,2016-078E,2026-07-23T13:57:46.816704,15.61861577,.0006198,34.9440,358.6297,160.8688,199.2271,0,U,41888,999,53466,.37057201E-3,.33404E-3,0
CYGFM07,2016-078G,2026-07-23T12:55:28.498656,15.61968125,.00049852,34.9456,347.2273,178.3964,181.6778,0,U,41890,999,53468,.36648964E-3,.33161E-3,0
CYGFM03,2016-078H,2026-07-23T13:46:09.273216,15.61955643,.00045138,34.9412,348.9200,162.5299,197.5583,0,U,41891,999,53466,.37369571E-3,.33797E-3,0
