DMSP 5D-3 F16 (USA 172) 
1 28054U 03048A   26204.60436374 -.00000010  00000+0  18313-4 0  9992
2 28054  98.9887 228.6723 0007881  50.4841  63.9818 14.14485024174635
METEOSAT-9 (MSG-2)      
1 28912U 05049B   26203.95837882  .00000120  00000+0  00000+0 0  9994
2 28912   9.4401  53.8093 0002491   0.9883 276.6377  1.00276551  7354
DMSP 5D-3 F17 (USA 191) 
1 29522U 06050A   26204.58595150  .00000027  00000+0  36586-4 0  9993
2 29522  98.7392 210.4132 0009272 317.5244  42.5211 14.14996790 17574
FENGYUN 3A              
1 32958U 08026A   26204.55770246  .00000047  00000+0  43044-4 0  9992
2 32958  98.6886 144.7119 0009313  29.8116 330.3589 14.19577818940560
EWS-G3 (GOES 14)        
1 35491U 09033A   26204.54211512 -.00000355  00000+0  00000+0 0  9994
2 35491   1.7807  82.5909 0002258  39.6383 134.0042  1.00094475  6953
DMSP 5D-3 F18 (USA 210) 
1 35951U 09057A   26204.55957868  .00000210  00000+0  13150-3 0  9996
2 35951  98.9064 185.2545 0011683 142.6518 217.5470 14.14915612864735
EWS-G2 (GOES 15)        
1 36411U 10008A   26204.41097613  .00000026  00000+0  00000+0 0  9995
2 36411   1.3750  82.3693 0005658  52.8208  17.1477  1.00272364 60001
COMS 1                  
1 36744U 10032A   26204.52695140 -.00000133  00000+0  00000+0 0  9992
2 36744   4.8958  74.9166 0011538  15.4491 329.5146  0.99165960 51444
FENGYUN 3B              
1 37214U 10059A   26204.60036447  .00000025  00000+0  36066-4 0  9997
2 37214  98.9604 250.7654 0023247  84.0013  68.8333 14.14847905812575
SUOMI NPP               
1 37849U 11061A   26204.57029696  .00000042  00000+0  40751-4 0  9994
2 37849  98.7956 145.1993 0001187 179.7398 180.3779 14.19523877763604
METEOSAT-10 (MSG-3)     
1 38552U 12035B   26204.32714843 -.00000006  00000+0  00000+0 0  9995
2 38552   4.7548  60.8386 0001501  20.6416 337.4080  1.00273350 51215
METOP-B                 
1 38771U 12049A   26204.58166650  .00000070  00000+0  51791-4 0  9996
2 38771  98.6484 255.3509 0001440 213.3063 146.8024 14.21448081718434
INSAT-3D                
1 39216U 13038B   26204.54211512 -.00000336  00000+0  00000+0 0  9992
2 39216   2.0172  82.0810 0001161  44.1234 139.7387  1.00272591 47445
FENGYUN 3C              
1 39260U 13052A   26204.58191921  .00000064  00000+0  53476-4 0  9999
2 39260  98.5007 176.7908 0013444 279.8450  80.1207 14.15762211663711
METEOR-M 2              
1 40069U 14037A   26204.60750669  .00000134  00000+0  80593-4 0  9993
2 40069  98.5143 179.0607 0004698 298.3637  61.7067 14.21471385624494
HIMAWARI-8              
1 40267U 14060A   26204.53656027 -.00000271  00000+0  00000+0 0  9997
2 40267   0.0383 271.6145 0001395 245.2728 118.1855  1.00270581 43122
FENGYUN 2G              
1 40367U 14090A   26204.56077829 -.00000303  00000+0  00000+0 0  9997
2 40367   5.7286  72.3725 0003660 170.8315 359.5189  1.00278257 42363
METEOSAT-11 (MSG-4)     
1 40732U 15034A   26204.32888177  .00000064  00000+0  00000+0 0  9995
2 40732   3.2887  70.8737 0001965 355.6720   2.2037  1.00274399  7575
ELEKTRO-L 2             
1 41105U 15074A   26204.39537605 -.00000118  00000+0  00000+0 0  9999
2 41105   6.7828  70.0749 0000608 232.2610 126.6465  1.00272680 38862
SENTINEL-3A             
1 41335U 16011A   26204.61394427  .00000137  00000+0  74790-4 0  9996
2 41335  98.6231 271.4708 0001290  86.8631 273.2698 14.26736152543253
INSAT-3DR               
1 41752U 16054A   26204.55566494 -.00000072  00000+0  00000+0 0  9991
2 41752   0.0901  88.9489 0010239 180.2150 306.1426  1.00271813 36182
HIMAWARI-9              
1 41836U 16064A   26204.28378922  .00000000  00000+0  00000+0 0  9992
2 41836   0.0156  51.3157 0002529 127.9715   4.6463  1.00270213 35577
GOES 16                 
1 41866U 16071A   26204.52027803 -.00000086  00000+0  00000+0 0  9994
2 41866   0.4242  85.4212 0000753  70.8158 227.6119  1.00271931 35465
FENGYUN 4A              
1 41882U 16077A   26204.43601374 -.00000355  00000+0  00000+0 0  9998
2 41882   2.4122  79.8675 0008020 158.7325 343.1279  1.00264744 35295
CYGFM05                 
1 41884U 16078A   26204.58767576  .00025559  00000+0  32707-3 0  9999
2 41884  34.9577  19.2667 0005348 130.7149 229.4041 15.58183400534434
CYGFM04                 
1 41885U 16078B   26204.56728111  .00036982  00000+0  38442-3 0  9994
2 41885  34.9333 345.1759 0004498 180.1938 179.8787 15.63517390534696
CYGFM02                 
1 41886U 16078C   26204.55782432  .00043551  00000+0  39512-3 0  9999
2 41886  34.9411 338.6441 0005205 180.7880 179.2840 15.66885196534877
CYGFM01                 
1 41887U 16078D   26204.62392811  .00026758  00000+0  33293-3 0  9996
2 41887  34.9406  19.7776 0005137 123.8181 236.3034 15.58917545534398
CYGFM08                 
1 41888U 16078E   26204.58179186  .00033404  00000+0  37057-3 0  9998
2 41888  34.9440 358.6297 0006198 160.8688 199.2271 15.61861577534668
CYGFM07                 
1 41890U 16078G   26204.53852429  .00033161  00000+0  36649-3 0  9990
2 41890  34.9456 347.2273 0004985 178.3964 181.6778 15.61968125534685
CYGFM03                 
1 41891U 16078H   26204.57371844  .00033797  00000+0  37370-3 0  9999
2 41891  34.9412 348.9200 0004513 162.5299 197.5583 15.61955643534668
